[{"OBJECT_NAME":"OBJECT A","OBJECT_ID":"2023-085A","EPOCH":"2026-03-09T21:42:39.504096","MEAN_MOTION":15.28003151,"ECCENTRICITY":0.00073195,"INCLINATION":97.4858,"RA_OF_ASC_NODE":178.2033,"ARG_OF_PERICENTER":32.2499,"MEAN_ANOMALY":327.9186,"EPHEMERIS_TYPE":0,"CLASSIFICATION_TYPE":"U","NORAD_CAT_ID":57004,"ELEMENT_SET_NO":999,"REV_AT_EPOCH":15139,"BSTAR":0.00063583858,"MEAN_MOTION_DOT":0.0001733,"MEAN_MOTION_DDOT":0},{"OBJECT_NAME":"STARLINK-33707","OBJECT_ID":"2025-065C","EPOCH":"2026-03-08T12:38:49.447680","MEAN_MOTION":15.27581718,"ECCENTRICITY":0.00020118,"INCLINATION":43.0003,"RA_OF_ASC_NODE":113.5212,"ARG_OF_PERICENTER":291.8895,"MEAN_ANOMALY":68.1743,"EPHEMERIS_TYPE":0,"CLASSIFICATION_TYPE":"U","NORAD_CAT_ID":63401,"ELEMENT_SET_NO":999,"REV_AT_EPOCH":5266,"BSTAR":0.0015091346,"MEAN_MOTION_DOT":0.00041503,"MEAN_MOTION_DDOT":0}]
